FLOCK 4BE-29            
1 60509U 24149AT  26132.19949981  .00010637  00000+0  24364-3 0  9992
2 60509  97.3808 217.5660 0003871  83.4699 276.6989 15.42953584 96864
TRANSPORTER-11 OBJECT AU
1 60510U 24149AU  26132.18303134  .00009133  00000+0  23701-3 0  9990
2 60510  97.3727 215.6460 0004779  72.3205 287.8562 15.39204809 96777
FLOCK 4BE-2             
1 60511U 24149AV  26132.18131058  .00029504  00000+0  54513-3 0  9994
2 60511  97.3821 218.5623 0003645  81.9115 278.2550 15.49024866 96925
FLOCK 4BE-13            
1 60512U 24149AW  26132.19040970  .00008575  00000+0  21061-3 0  9995
2 60512  97.3719 216.2567 0004769  55.7995 304.3703 15.40908690 96824
FLOCK 4BE-27            
1 60513U 24149AX  26132.18936441  .00005376  00000+0  16680-3 0  9999
2 60513  97.3826 214.0417 0005345  80.9668 279.2180 15.33811702 96628
FLOCK 4BE-9             
1 60514U 24149AY  26131.96774772  .00011109  00000+0  28317-3 0  9993
2 60514  97.3789 215.9206 0004023  85.5943 274.5762 15.39701467 96741
FLOCK 4BE-6             
1 60516U 24149BA  26131.96909161  .00009712  00000+0  25705-3 0  9992
2 60516  97.3787 215.3457 0004769  81.6882 278.4904 15.38578680 96704
FLOCK 4BE-14            
1 60517U 24149BB  26131.98437390  .00010353  00000+0  26255-3 0  9999
2 60517  97.3694 215.4691 0005623  78.5090 281.6787 15.39867629 96754
FLOCK 4BE-1             
1 60518U 24149BC  26131.97200782  .00011900  00000+0  28682-3 0  9997
2 60518  97.3778 216.6071 0005122  78.4541 281.7280 15.41381486 96795
FLOCK 4BE-28            
1 60519U 24149BD  26131.91003369  .00013035  00000+0  29127-3 0  9990
2 60519  97.3744 217.1584 0005210  73.5350 286.6470 15.43632963 96848
IPERDRONE.0             
1 60520U 24149BE  26131.77421432  .00040195  00000+0  46361-3 0  9997
2 60520  97.3772 223.3373 0001690  46.1605 313.9792 15.61839038 97229
TRANSPORTER-11 OBJECT BF
1 60521U 24149BF  26132.03837698  .00096444  00000+0  72124-3 0  9997
2 60521  97.3773 225.5733 0000508 342.1984  17.9261 15.72396435 97381
CONNECTA IOT-2          
1 60522U 24149BG  26132.19447618  .00002898  00000+0  12373-3 0  9994
2 60522  97.3842 210.8940 0008171  92.8601 267.3571 15.23660027 96410
PTD-R (TYVAK-0127)      
1 60523U 24149BH  26132.00703573  .00146523  00000+0  54477-3 0  9995
2 60523  97.3767 229.5491 0001185 213.6317 146.4879 15.87666031 97667
CONNECTA IOT-4          
1 60524U 24149BJ  26131.46408180  .00011458  00000+0  28162-3 0  9991
2 60524  97.3794 215.4407 0006294  72.2396 287.9537 15.40792610 96675
ORESAT0.5               
1 60525U 24149BK  26131.96302339  .00012670  00000+0  28228-3 0  9996
2 60525  97.3716 217.4497 0006226  61.2746 298.9126 15.43721671 96884
DEIMOS                  
1 60526U 24149BL  26131.78145134  .00012351  00000+0  28266-3 0  9993
2 60526  97.3776 217.4225 0006389  67.3038 292.8884 15.42925628 96837
CUAVA-2                 
1 60527U 24149BM  26132.11463053  .00007929  00000+0  23361-3 0  9991
2 60527  97.3726 213.5972 0007887  69.5515 290.6575 15.35277103 96638
ERNST                   
1 60528U 24149BN  26132.20700478  .00008443  00000+0  22609-3 0  9993
2 60528  97.3806 215.6852 0007267  72.9865 287.2176 15.38246986 96745
TORO                    
1 60530U 24149BQ  26132.19642060  .00000867  00000+0  81808-4 0  9995
2 60530  97.6789 207.5385 0001588  95.5822 264.5580 14.96286057 94578
HYPSO-2                 
1 60531U 24149BR  26132.14702580  .00001643  00000+0  14188-3 0  9994
2 60531  97.6817 208.9352 0002178 112.2825 247.8628 14.98606318 94650
LEMU NGE                
1 60532U 24149BS  26132.10617311  .00001294  00000+0  12416-3 0  9992
2 60532  97.6847 207.7975 0002541 113.5140 246.6348 14.94801406 94567
LEMUR-2-STELLA          
1 60533U 24149BT  26132.19789155  .00006021  00000+0  36432-3 0  9995
2 60533  97.6731 214.5205 0001915 123.9472 236.1939 15.11004561 95062
SATELIOT_2              
1 60534U 24149BU  26132.18205546  .00000693  00000+0  66476-4 0  9993
2 60534  97.6833 207.7971 0001345 108.1414 251.9954 14.96226256 94585
NIGHTJAR                
1 60535U 24149BV  26132.14351304  .00001713  00000+0  14693-3 0  9991
2 60535  97.6837 209.3554 0001219 154.8706 205.2576 14.98800085137475
LEMUR-2-MARHISYAM       
1 60536U 24149BW  26131.96686132  .00006799  00000+0  41669-3 0  9993
2 60536  97.6875 214.6994 0001438 196.0504 164.0680 15.10492267 95017
SATELIOT_4              
1 60537U 24149BX  26132.20032529  .00001111  00000+0  10278-3 0  9992
2 60537  97.6737 207.3672 0002975 132.7717 227.3756 14.96531959 94591
PICO-02A021             
1 60538U 24149BY  26131.48494977  .00003060  00000+0  23246-3 0  9995
2 60538  97.6767 210.6440 0006590 131.9823 228.1965 15.02902826 94225
ICEYE-X43               
1 60539U 24149BZ  26132.19995006  .00001602  00000+0  13445-3 0  9994
2 60539  97.6770 209.6618 0004424 202.1130 157.9903 14.99743792 94727
HAWK-10A                
1 60540U 24149CA  26132.19554397  .00000525  00000+0  51355-4 0  9996
2 60540  97.6895 208.7272 0003450 170.1147 190.0143 14.96397346 94601
