OBJECT_NAME,OBJECT_ID,EPOCH,MEAN_MOTION,ECCENTRICITY,INCLINATION,RA_OF_ASC_NODE,ARG_OF_PERICENTER,MEAN_ANOMALY,EPHEMERIS_TYPE,CLASSIFICATION_TYPE,NORAD_CAT_ID,ELEMENT_SET_NO,REV_AT_EPOCH,BSTAR,MEAN_MOTION_DOT,MEAN_MOTION_DDOT
FLOCK 4BE-29,2024-149AT,2026-05-12T04:47:16.783584,15.42953584,.0003871,97.3808,217.5660,83.4699,276.6989,0,U,60509,999,9686,.24364E-3,.10637E-3,0
TRANSPORTER-11 OBJECT AU,2024-149AU,2026-05-12T04:23:33.907776,15.39204809,.0004779,97.3727,215.6460,72.3205,287.8562,0,U,60510,999,9677,.23701E-3,.9133E-4,0
FLOCK 4BE-2,2024-149AV,2026-05-12T04:21:05.234112,15.49024866,.0003645,97.3821,218.5623,81.9115,278.2550,0,U,60511,999,9692,.54513E-3,.29504E-3,0
FLOCK 4BE-13,2024-149AW,2026-05-12T04:34:11.398080,15.40908690,.0004769,97.3719,216.2567,55.7995,304.3703,0,U,60512,999,9682,.21061E-3,.8575E-4,0
FLOCK 4BE-27,2024-149AX,2026-05-12T04:32:41.085024,15.33811702,.0005345,97.3826,214.0417,80.9668,279.2180,0,U,60513,999,9662,.1668E-3,.5376E-4,0
FLOCK 4BE-9,2024-149AY,2026-05-11T23:13:33.403008,15.39701467,.0004023,97.3789,215.9206,85.5943,274.5762,0,U,60514,999,9674,.28317E-3,.11109E-3,0
FLOCK 4BE-6,2024-149BA,2026-05-11T23:15:29.515104,15.38578680,.0004769,97.3787,215.3457,81.6882,278.4904,0,U,60516,999,9670,.25705E-3,.9712E-4,0
FLOCK 4BE-14,2024-149BB,2026-05-11T23:37:29.904960,15.39867629,.0005623,97.3694,215.4691,78.5090,281.6787,0,U,60517,999,9675,.26255E-3,.10353E-3,0
FLOCK 4BE-1,2024-149BC,2026-05-11T23:19:41.475648,15.41381486,.0005122,97.3778,216.6071,78.4541,281.7280,0,U,60518,999,9679,.28682E-3,.119E-3,0
FLOCK 4BE-28,2024-149BD,2026-05-11T21:50:26.910816,15.43632963,.000521,97.3744,217.1584,73.5350,286.6470,0,U,60519,999,9684,.29127E-3,.13035E-3,0
IPERDRONE.0,2024-149BE,2026-05-11T18:34:52.117248,15.61839038,.00016903,97.3772,223.3373,46.1605,313.9792,0,U,60520,999,9722,.46360762E-3,.40195E-3,0
TRANSPORTER-11 OBJECT BF,2024-149BF,2026-05-12T00:55:15.771072,15.72396435,.0000508,97.3773,225.5733,342.1984,17.9261,0,U,60521,999,9738,.72124E-3,.96444E-3,0
CONNECTA IOT-2,2024-149BG,2026-05-12T04:40:02.741952,15.23660027,.0008171,97.3842,210.8940,92.8601,267.3571,0,U,60522,999,9641,.12373E-3,.2898E-4,0
PTD-R (TYVAK-0127),2024-149BH,2026-05-12T00:10:07.887072,15.87666031,.0001185,97.3767,229.5491,213.6317,146.4879,0,U,60523,999,9766,.54477E-3,.146523E-2,0
CONNECTA IOT-4,2024-149BJ,2026-05-11T11:08:16.667520,15.40792610,.00062943,97.3794,215.4407,72.2396,287.9537,0,U,60524,999,9667,.28162201E-3,.11458E-3,0
ORESAT0.5,2024-149BK,2026-05-11T23:06:45.220896,15.43721671,.0006226,97.3716,217.4497,61.2746,298.9126,0,U,60525,999,9688,.28228E-3,.1267E-3,0
DEIMOS,2024-149BL,2026-05-11T18:45:17.395776,15.42925628,.00063899,97.3776,217.4225,67.3038,292.8884,0,U,60526,999,9683,.28265687E-3,.12351E-3,0
CUAVA-2,2024-149BM,2026-05-12T02:45:04.077792,15.35277103,.0007887,97.3726,213.5972,69.5515,290.6575,0,U,60527,999,9663,.23361E-3,.7929E-4,0
ERNST,2024-149BN,2026-05-12T04:58:05.212992,15.38246986,.0007267,97.3806,215.6852,72.9865,287.2176,0,U,60528,999,9674,.22609E-3,.8443E-4,0
TORO,2024-149BQ,2026-05-12T04:42:50.739840,14.96286057,.0001588,97.6789,207.5385,95.5822,264.5580,0,U,60530,999,9457,.81808E-4,.867E-5,0
HYPSO-2,2024-149BR,2026-05-12T03:31:43.029120,14.98606318,.0002178,97.6817,208.9352,112.2825,247.8628,0,U,60531,999,9465,.14188E-3,.1643E-4,0
LEMU NGE,2024-149BS,2026-05-12T02:32:53.356704,14.94801406,.0002541,97.6847,207.7975,113.5140,246.6348,0,U,60532,999,9456,.12416E-3,.1294E-4,0
LEMUR-2-STELLA,2024-149BT,2026-05-12T04:44:57.829920,15.11004561,.0001915,97.6731,214.5205,123.9472,236.1939,0,U,60533,999,9506,.36432E-3,.6021E-4,0
SATELIOT_2,2024-149BU,2026-05-12T04:22:09.591744,14.96226256,.0001345,97.6833,207.7971,108.1414,251.9954,0,U,60534,999,9458,.66476E-4,.693E-5,0
NIGHTJAR,2024-149BV,2026-05-12T03:26:39.526656,14.98800085,.0001219,97.6837,209.3554,154.8706,205.2576,0,U,60535,999,13747,.14693E-3,.1713E-4,0
LEMUR-2-MARHISYAM,2024-149BW,2026-05-11T23:12:16.818048,15.10492267,.0001438,97.6875,214.6994,196.0504,164.0680,0,U,60536,999,9501,.41669E-3,.6799E-4,0
SATELIOT_4,2024-149BX,2026-05-12T04:48:28.105056,14.96531959,.0002975,97.6737,207.3672,132.7717,227.3756,0,U,60537,999,9459,.10278E-3,.1111E-4,0
PICO-02A021,2024-149BY,2026-05-11T11:38:19.660128,15.02902826,.00065905,97.6767,210.6440,131.9823,228.1965,0,U,60538,999,9422,.23246488E-3,.306E-4,0
ICEYE-X43,2024-149BZ,2026-05-12T04:47:55.685184,14.99743792,.0004424,97.6770,209.6618,202.1130,157.9903,0,U,60539,999,9472,.13445E-3,.1602E-4,0
HAWK-10A,2024-149CA,2026-05-12T04:41:34.999008,14.96397346,.000345,97.6895,208.7272,170.1147,190.0143,0,U,60540,999,9460,.51355E-4,.525E-5,0
